SL-16 R/B               
1 24298U 96051B   26199.26269021  .00000144  00000+0  10461-3 0  9994
2 24298  70.7644 258.8856 0018002 294.1271  65.7966 14.12457729540082
ORBVIEW 2 (SEASTAR)     
1 24883U 97037A   26199.45414649  .00000086  00000+0  45971-4 0  9998
2 24883  98.8717   7.3443 0002978  54.3716 305.7745 14.35567659527231
SL-16 R/B               
1 25400U 98043G   26199.86579530  .00000005  00000+0  21245-4 0  9997
2 25400  98.8380 154.3006 0009851   1.0319 359.0879 14.26073037457689
SL-16 R/B               
1 25407U 98045B   26199.31415702 -.00000048  00000+0 -34107-6 0  9998
2 25407  71.0104 266.8694 0008015 201.8872 158.1910 14.16204898445591
ISS (ZARYA)             
1 25544U 98067A   26199.86307315  .00004074  00000+0  81939-4 0  9998
2 25544  51.6317 143.3357 0006808 311.9482  48.0925 15.49045026576665
CZ-4B R/B               
1 25732U 99025C   26199.75343461  .00000004  00000+0  22620-4 0  9993
2 25732  98.6470 240.7950 0036463 329.3565 143.4541 14.18288057406744
OKEAN-O                 
1 25860U 99039A   26199.77530104  .00000236  00000+0  37586-4 0  9998
2 25860  97.9298 258.2077 0000887  95.0719 265.0594 14.80499599453788
SL-16 R/B               
1 25861U 99039B   26199.76778505  .00000181  00000+0  29662-4 0  9992
2 25861  97.9820 258.5379 0014594 186.5731 173.5292 14.81872610456273
DELTA 2 R/B             
1 25876U 99041E   26199.81455409  .00000788  00000+0  16580-3 0  9999
2 25876  51.7612 137.4338 0501446  15.4419 346.1200 14.12093351381552
HELIOS 1B               
1 25977U 99064A   26199.71566858  .00000547  00000+0  65889-4 0  9996
2 25977  98.1579 105.7644 0001750  50.7312 309.4059 14.88079681704743
TERRA                   
1 25994U 99068A   26199.80267962  .00000157  00000+0  40867-4 0  9999
2 25994  97.9439 248.0926 0003541 115.7251 355.8160 14.61125268414225
SL-16 R/B               
1 26070U 00006B   26199.36339125  .00000056  00000+0  52811-4 0  9991
2 26070  71.0003 183.0713 0017318 335.6413  24.3890 14.15838129367055
TITAN 4B R/B            
1 26474U 00047B   26199.78282495  .00001258  00000+0  83177-4 0  9991
2 26474  67.9873  31.6264 0045740 255.1933 104.4147 15.10343143412705
ENVISAT                 
1 27386U 02009A   26199.87696225  .00000023  00000+0  21289-4 0  9999
2 27386  98.3848 150.4915 0001316  82.9600 295.7830 14.39071184278042
IDEFIX & ARIANE 42P R/B 
1 27422U 02021B   26199.80191384  .00000076  00000+0  45577-4 0  9997
2 27422  98.5941 136.9434 0012127 156.0037 204.1713 14.31094599262777
AQUA                    
1 27424U 02022A   26199.86910771  .00000313  00000+0  72096-4 0  9995
2 27424  98.4299 169.7895 0001254 101.6287 288.6634 14.62131328287908
CZ-4B R/B               
1 27432U 02024C   26199.87985859 -.00000009  00000+0  18159-4 0  9999
2 27432  98.8683 252.4913 0050295  11.5706 162.0327 14.14568466247783
MIDORI II (ADEOS-II)    
1 27597U 02056A   26199.77860420  .00000086  00000+0  51592-4 0  9993
2 27597  98.7896 159.3104 0001336  36.6606 323.4666 14.29363960229020
H-2A R/B                
1 27601U 02056E   26199.83369373  .00000117  00000+0  55426-4 0  9992
2 27601  98.3330 155.3577 0071051 130.2166 293.7356 14.33835015232904
CZ-4B R/B               
1 28059U 03049C   26199.44989816  .00000112  00000+0  37413-4 0  9991
2 28059  98.6912 199.5432 0047864 191.2459 168.7671 14.55117301205612
CZ-2C R/B               
1 28222U 04012C   26199.77901679  .00106192  00000+0  42879-3 0  9997
2 28222  97.7048 279.2857 0010835 181.3610 178.7632 15.85977451224891
SL-16 R/B               
1 28353U 04021B   26199.76950308 -.00000115  00000+0 -34862-4 0  9998
2 28353  71.0030 317.4076 0006194 222.0588 138.0059 14.14616355141377
CZ-4B R/B               
1 28415U 04035C   26199.05074265  .00003907  00000+0  13132-3 0  9999
2 28415  97.3352 231.7827 0029454 222.0369 137.8613 15.31014525199846
CZ-2C R/B               
1 28480U 04046B   26199.74414938  .00000063  00000+0  38062-4 0  9994
2 28480  98.1911 106.5477 0140315 126.9550 234.4577 14.27033904127190
ARIANE 5 R/B            
1 28499U 04049H   26199.45226317  .00000248  00000+0  34303-4 0  9996
2 28499  98.2744  12.9185 0082537 287.5511  71.6698 14.85480833165203
CZ-2D R/B               
1 28738U 05024B   26199.80542683  .00043586  00000+0  31927-3 0  9992
2 28738  97.3473 220.8952 0003026 182.8707 177.2541 15.73067742160304
ALOS (DAICHI)           
1 28931U 06002A   26199.80848720  .00000459  00000+0  84598-4 0  9990
2 28931  98.1339 155.2816 0000908 107.0701 253.0604 14.70105772 92745
H-2A R/B                
1 28932U 06002B   26199.16204575  .00004262  00000+0  20390-3 0  9999
2 28932  98.2601 357.8078 0050971 156.0067 204.3557 15.18473670114225
RESURS-DK 1             
1 29228U 06021A   26199.56535780  .00000867  00000+0  54664-4 0  9997
2 29228  69.9303 258.3198 0007303 267.3280  92.7050 15.13325666107326
CZ-4B R/B               
1 29507U 06046C   26199.69797019  .00001924  00000+0  96828-4 0  9996
2 29507  97.5434 244.2087 0032926 170.0290 190.1604 15.17996712 79910
