OBJECT_NAME,OBJECT_ID,EPOCH,MEAN_MOTION,ECCENTRICITY,INCLINATION,RA_OF_ASC_NODE,ARG_OF_PERICENTER,MEAN_ANOMALY,EPHEMERIS_TYPE,CLASSIFICATION_TYPE,NORAD_CAT_ID,ELEMENT_SET_NO,REV_AT_EPOCH,BSTAR,MEAN_MOTION_DOT,MEAN_MOTION_DDOT
SL-16 R/B,1996-051B,2026-07-18T06:18:16.434144,14.12457729,.00180024,70.7644,258.8856,294.1271,65.7966,0,U,24298,999,54008,.10460808E-3,.144E-5,0
ORBVIEW 2 (SEASTAR),1997-037A,2026-07-18T10:53:58.256736,14.35567659,.00029787,98.8717,7.3443,54.3716,305.7745,0,U,24883,999,52723,.45971368E-4,.86E-6,0
SL-16 R/B,1998-043G,2026-07-18T20:46:44.713920,14.26073037,.0009851,98.8380,154.3006,1.0319,359.0879,0,U,25400,999,45768,.21245E-4,.5E-7,0
SL-16 R/B,1998-045B,2026-07-18T07:32:23.166528,14.16204898,.00080152,71.0104,266.8694,201.8872,158.1910,0,U,25407,999,44559,-.341074E-6,-.48E-6,0
ISS (ZARYA),1998-067A,2026-07-18T20:42:49.520160,15.49045026,.0006808,51.6317,143.3357,311.9482,48.0925,0,U,25544,999,57666,.81939E-4,.4074E-4,0
CZ-4B R/B,1999-025C,2026-07-18T18:04:56.750304,14.18288057,.0036463,98.6470,240.7950,329.3565,143.4541,0,U,25732,999,40674,.2262E-4,.4E-7,0
OKEAN-O,1999-039A,2026-07-18T18:36:26.009856,14.80499599,.0000887,97.9298,258.2077,95.0719,265.0594,0,U,25860,999,45378,.37586E-4,.236E-5,0
SL-16 R/B,1999-039B,2026-07-18T18:25:36.628320,14.81872610,.0014594,97.9820,258.5379,186.5731,173.5292,0,U,25861,999,45627,.29662E-4,.181E-5,0
DELTA 2 R/B,1999-041E,2026-07-18T19:32:57.473376,14.12093351,.0501446,51.7612,137.4338,15.4419,346.1200,0,U,25876,999,38155,.1658E-3,.788E-5,0
HELIOS 1B,1999-064A,2026-07-18T17:10:33.765312,14.88079681,.000175,98.1579,105.7644,50.7312,309.4059,0,U,25977,999,70474,.65889E-4,.547E-5,0
TERRA,1999-068A,2026-07-18T19:15:51.519168,14.61125268,.0003541,97.9439,248.0926,115.7251,355.8160,0,U,25994,999,41422,.40867E-4,.157E-5,0
SL-16 R/B,2000-006B,2026-07-18T08:43:17.004000,14.15838129,.00173183,71.0003,183.0713,335.6413,24.3890,0,U,26070,999,36705,.52811018E-4,.56E-6,0
TITAN 4B R/B,2000-047B,2026-07-18T18:47:16.075680,15.10343143,.004574,67.9873,31.6264,255.1933,104.4147,0,U,26474,999,41270,.83177E-4,.1258E-4,0
ENVISAT,2002-009A,2026-07-18T21:02:49.538400,14.39071184,.0001316,98.3848,150.4915,82.9600,295.7830,0,U,27386,999,27804,.21289E-4,.23E-6,0
IDEFIX & ARIANE 42P R/B,2002-021B,2026-07-18T19:14:45.355776,14.31094599,.0012127,98.5941,136.9434,156.0037,204.1713,0,U,27422,999,26277,.45577E-4,.76E-6,0
AQUA,2002-022A,2026-07-18T20:51:30.906144,14.62131328,.0001254,98.4299,169.7895,101.6287,288.6634,0,U,27424,999,28790,.72096E-4,.313E-5,0
CZ-4B R/B,2002-024C,2026-07-18T21:06:59.782176,14.14568466,.0050295,98.8683,252.4913,11.5706,162.0327,0,U,27432,999,24778,.18159E-4,-.9E-7,0
MIDORI II (ADEOS-II),2002-056A,2026-07-18T18:41:11.402880,14.29363960,.0001336,98.7896,159.3104,36.6606,323.4666,0,U,27597,999,22902,.51592E-4,.86E-6,0
H-2A R/B,2002-056E,2026-07-18T20:00:31.138272,14.33835015,.0071051,98.3330,155.3577,130.2166,293.7356,0,U,27601,999,23290,.55426E-4,.117E-5,0
CZ-4B R/B,2003-049C,2026-07-18T10:47:51.201024,14.55117301,.00478644,98.6912,199.5432,191.2459,168.7671,0,U,28059,999,20561,.37413316E-4,.112E-5,0
CZ-2C R/B,2004-012C,2026-07-18T18:41:47.050656,15.85977451,.0010835,97.7048,279.2857,181.3610,178.7632,0,U,28222,999,22489,.42879E-3,.106192E-2,0
SL-16 R/B,2004-021B,2026-07-18T18:28:05.066112,14.14616355,.0006194,71.0030,317.4076,222.0588,138.0059,0,U,28353,999,14137,-.34862E-4,-.115E-5,0
CZ-4B R/B,2004-035C,2026-07-18T01:13:04.164960,15.31014525,.00294544,97.3352,231.7827,222.0369,137.8613,0,U,28415,999,19984,.13131689E-3,.3907E-4,0
CZ-2C R/B,2004-046B,2026-07-18T17:51:34.506432,14.27033904,.0140315,98.1911,106.5477,126.9550,234.4577,0,U,28480,999,12719,.38062E-4,.63E-6,0
ARIANE 5 R/B,2004-049H,2026-07-18T10:51:15.537888,14.85480833,.00825372,98.2744,12.9185,287.5511,71.6698,0,U,28499,999,16520,.3430287E-4,.248E-5,0
CZ-2D R/B,2005-024B,2026-07-18T19:19:48.878112,15.73067742,.0003026,97.3473,220.8952,182.8707,177.2541,0,U,28738,999,16030,.31927E-3,.43586E-3,0
ALOS (DAICHI),2006-002A,2026-07-18T19:24:13.294080,14.70105772,.0000908,98.1339,155.2816,107.0701,253.0604,0,U,28931,999,9274,.84598E-4,.459E-5,0
H-2A R/B,2006-002B,2026-07-18T03:53:20.752800,15.18473670,.0050971,98.2601,357.8078,156.0067,204.3557,0,U,28932,999,11422,.20389903E-3,.4262E-4,0
RESURS-DK 1,2006-021A,2026-07-18T13:34:06.913920,15.13325666,.0007303,69.9303,258.3198,267.3280,92.7050,0,U,29228,999,10732,.54664E-4,.867E-5,0
CZ-4B R/B,2006-046C,2026-07-18T16:45:04.624416,15.17996712,.0032926,97.5434,244.2087,170.0290,190.1604,0,U,29507,999,7991,.96828E-4,.1924E-4,0
